{
  "norad_id": 55369,
  "name": "STARLINK-5644",
  "history": [
    {
      "epoch": "2026-04-13T02:08:58.372800Z",
      "apogee_km": 533.917154087997,
      "perigee_km": 531.9660183815304,
      "latitude_deg": -9.421221381187304e-07,
      "longitude_deg": -108.78816902249666,
      "height_km": 532.661115285413,
      "semi_major_axis_km": 6911.078586234763,
      "eccentricity": 0.00014116,
      "inclination_deg": 43.0022,
      "raan_deg": 124.7404,
      "arg_perigee_deg": 273.4712,
      "mean_anomaly_deg": 86.5972,
      "mean_motion_rev_day": 15.11068022
    },
    {
      "epoch": "2026-04-14T17:48:38.007648Z",
      "apogee_km": 533.9012394342462,
      "perigee_km": 531.959229541354,
      "latitude_deg": 2.9619749632276406e-06,
      "longitude_deg": 5.568371807001229,
      "height_km": 532.6332192398452,
      "semi_major_axis_km": 6911.067234487799,
      "eccentricity": 0.0001405,
      "inclination_deg": 43.002,
      "raan_deg": 115.6409,
      "arg_perigee_deg": 274.4645,
      "mean_anomaly_deg": 85.604,
      "mean_motion_rev_day": 15.11071745
    },
    {
      "epoch": "2026-04-15T17:36:25.944768Z",
      "apogee_km": 533.8977850319088,
      "perigee_km": 531.9640682260388,
      "latitude_deg": 9.051173035847132e-06,
      "longitude_deg": 2.181848502289323,
      "height_km": 532.618596654825,
      "semi_major_axis_km": 6911.0679266289735,
      "eccentricity": 0.0001399,
      "inclination_deg": 43.0023,
      "raan_deg": 110.1814,
      "arg_perigee_deg": 275.3963,
      "mean_anomaly_deg": 84.6723,
      "mean_motion_rev_day": 15.11071518
    },
    {
      "epoch": "2026-04-16T06:17:56.301216Z",
      "apogee_km": 533.7535426425429,
      "perigee_km": 532.2151270334089,
      "latitude_deg": -3.507984624041432e-07,
      "longitude_deg": 168.37062201029443,
      "height_km": 532.8615762895668,
      "semi_major_axis_km": 6911.121334837976,
      "eccentricity": 0.0001113,
      "inclination_deg": 43.0012,
      "raan_deg": 107.2679,
      "arg_perigee_deg": 262.6027,
      "mean_anomaly_deg": 97.4692,
      "mean_motion_rev_day": 15.11054002
    },
    {
      "epoch": "2026-04-17T10:51:16.967808Z",
      "apogee_km": 533.893855419441,
      "perigee_km": 531.9623509444027,
      "latitude_deg": -6.703062987326384e-06,
      "longitude_deg": 92.31276375449568,
      "height_km": 532.5280417114784,
      "semi_major_axis_km": 6911.065103181922,
      "eccentricity": 0.00013974,
      "inclination_deg": 43.0028,
      "raan_deg": 100.7189,
      "arg_perigee_deg": 280.664,
      "mean_anomaly_deg": 79.4048,
      "mean_motion_rev_day": 15.11072444
    },
    {
      "epoch": "2026-04-18T15:24:38.279808Z",
      "apogee_km": 533.993447871535,
      "perigee_km": 531.8620754990307,
      "latitude_deg": 5.146134908306201e-05,
      "longitude_deg": 16.249376444723485,
      "height_km": 532.6297443424161,
      "semi_major_axis_km": 6911.064761685282,
      "eccentricity": 0.0001542,
      "inclination_deg": 43.0033,
      "raan_deg": 94.167,
      "arg_perigee_deg": 274.1347,
      "mean_anomaly_deg": 85.9323,
      "mean_motion_rev_day": 15.11072556
    },
    {
      "epoch": "2026-04-19T15:12:28.167840Z",
      "apogee_km": 533.5496811823614,
      "perigee_km": 532.2863403263955,
      "latitude_deg": -1.7696689691309727e-05,
      "longitude_deg": 12.851919184503767,
      "height_km": 532.511770624847,
      "semi_major_axis_km": 6911.055010754378,
      "eccentricity": 9.14e-05,
      "inclination_deg": 43.0013,
      "raan_deg": 88.7048,
      "arg_perigee_deg": 286.9632,
      "mean_anomaly_deg": 73.1113,
      "mean_motion_rev_day": 15.11075754
    },
    {
      "epoch": "2026-04-20T05:29:08.366784Z",
      "apogee_km": 534.8240408178735,
      "perigee_km": 531.1915431152156,
      "latitude_deg": 3.8148992746605775e-05,
      "longitude_deg": 154.82261240674632,
      "height_km": 532.2750805980309,
      "semi_major_axis_km": 6911.144791966544,
      "eccentricity": 0.0002628,
      "inclination_deg": 43.0013,
      "raan_deg": 85.4293,
      "arg_perigee_deg": 286.377,
      "mean_anomaly_deg": 73.6787,
      "mean_motion_rev_day": 15.11046309
    },
    {
      "epoch": "2026-04-21T14:48:02.528352Z",
      "apogee_km": 533.7401827836375,
      "perigee_km": 532.1299029976435,
      "latitude_deg": -1.6255518555042716e-05,
      "longitude_deg": 6.086877591827178,
      "height_km": 532.5655631533205,
      "semi_major_axis_km": 6911.07204289064,
      "eccentricity": 0.0001165,
      "inclination_deg": 43.0026,
      "raan_deg": 77.7875,
      "arg_perigee_deg": 280.5859,
      "mean_anomaly_deg": 79.4855,
      "mean_motion_rev_day": 15.11070168
    },
    {
      "epoch": "2026-04-22T14:35:53.238048Z",
      "apogee_km": 534.4384840994471,
      "perigee_km": 531.6159646302176,
      "latitude_deg": 2.5643766603626467e-05,
      "longitude_deg": 2.6884041045594227,
      "height_km": 532.6151651169648,
      "semi_major_axis_km": 6911.164224364832,
      "eccentricity": 0.0002042,
      "inclination_deg": 43.0036,
      "raan_deg": 72.3276,
      "arg_perigee_deg": 277.791,
      "mean_anomaly_deg": 82.2704,
      "mean_motion_rev_day": 15.11039936
    },
    {
      "epoch": "2026-04-23T06:27:33.022080Z",
      "apogee_km": 534.1197351710562,
      "perigee_km": 530.9600354855465,
      "latitude_deg": -1.5107059066750337e-05,
      "longitude_deg": 120.480502197742,
      "height_km": 531.0983948409475,
      "semi_major_axis_km": 6910.676885328301,
      "eccentricity": 0.00022861,
      "inclination_deg": 43.0054,
      "raan_deg": 68.6869,
      "arg_perigee_deg": 39.5793,
      "mean_anomaly_deg": 320.5219,
      "mean_motion_rev_day": 15.11199776
    },
    {
      "epoch": "2026-04-24T20:00:01.999008Z",
      "apogee_km": 521.7725063015305,
      "perigee_km": 520.6051403722213,
      "latitude_deg": -39.89390616327843,
      "longitude_deg": 150.23866068930204,
      "height_km": 532.6179403735755,
      "semi_major_axis_km": 6899.325823336875,
      "eccentricity": 8.46e-05,
      "inclination_deg": 43.0001,
      "raan_deg": 60.0425,
      "arg_perigee_deg": 254.3785,
      "mean_anomaly_deg": 355.1998,
      "mean_motion_rev_day": 15.14930744
    },
    {
      "epoch": "2026-04-25T20:00:01.000224Z",
      "apogee_km": 518.1106549301649,
      "perigee_km": 515.0369928448754,
      "latitude_deg": -31.482470738354916,
      "longitude_deg": -140.11739077572852,
      "height_km": 524.7739067065228,
      "semi_major_axis_km": 6894.71082388752,
      "eccentricity": 0.0002229,
      "inclination_deg": 43.001,
      "raan_deg": 54.5061,
      "arg_perigee_deg": 235.5098,
      "mean_anomaly_deg": 74.8329,
      "mean_motion_rev_day": 15.16452035
    },
    {
      "epoch": "2026-04-26T22:00:00.999936Z",
      "apogee_km": 512.3328313063103,
      "perigee_km": 511.3314431919025,
      "latitude_deg": 39.237106593155595,
      "longitude_deg": -16.986623420140095,
      "height_km": 514.6101943472257,
      "semi_major_axis_km": 6889.969137249106,
      "eccentricity": 7.267e-05,
      "inclination_deg": 43.0006,
      "raan_deg": 48.4974,
      "arg_perigee_deg": 314.0762,
      "mean_anomaly_deg": 158.3214,
      "mean_motion_rev_day": 15.18017741
    },
    {
      "epoch": "2026-04-27T20:00:03.000384Z",
      "apogee_km": 509.2876853923035,
      "perigee_km": 507.436594423496,
      "latitude_deg": 43.12884938290888,
      "longitude_deg": -25.00629516036736,
      "height_km": 512.3462547012457,
      "semi_major_axis_km": 6886.499139907899,
      "eccentricity": 0.0001344,
      "inclination_deg": 42.9997,
      "raan_deg": 43.3882,
      "arg_perigee_deg": 294.0259,
      "mean_anomaly_deg": 154.0932,
      "mean_motion_rev_day": 15.19165243
    },
    {
      "epoch": "2026-04-28T20:00:01.000224Z",
      "apogee_km": 504.801489803991,
      "perigee_km": 504.2357355126296,
      "latitude_deg": 10.881170969729704,
      "longitude_deg": 49.1809107873783,
      "height_km": 503.69826208091433,
      "semi_major_axis_km": 6882.65561265831,
      "eccentricity": 4.11e-05,
      "inclination_deg": 43.0013,
      "raan_deg": 37.8174,
      "arg_perigee_deg": 289.0427,
      "mean_anomaly_deg": 234.9053,
      "mean_motion_rev_day": 15.20437957
    },
    {
      "epoch": "2026-04-29T20:00:01.999008Z",
      "apogee_km": 501.74082906274725,
      "perigee_km": 500.05133853736606,
      "latitude_deg": -38.17059875237684,
      "longitude_deg": 111.39472465270354,
      "height_km": 511.35485804615,
      "semi_major_axis_km": 6879.033083800056,
      "eccentricity": 0.0001228,
      "inclination_deg": 43.0001,
      "raan_deg": 32.2269,
      "arg_perigee_deg": 251.7431,
      "mean_anomaly_deg": 352.7776,
      "mean_motion_rev_day": 15.21639119
    },
    {
      "epoch": "2026-04-30T14:00:01.999872Z",
      "apogee_km": 499.4289584518983,
      "perigee_km": 496.89504227026464,
      "latitude_deg": 24.785487603188592,
      "longitude_deg": -11.009021133958449,
      "height_km": 498.69833047806526,
      "semi_major_axis_km": 6876.299000361081,
      "eccentricity": 0.00018425,
      "inclination_deg": 43.0006,
      "raan_deg": 28.0267,
      "arg_perigee_deg": 274.1704,
      "mean_anomaly_deg": 123.5936,
      "mean_motion_rev_day": 15.22546737
    },
    {
      "epoch": "2026-05-02T12:00:02.998944Z",
      "apogee_km": 493.5426667820893,
      "perigee_km": 491.32347264957207,
      "latitude_deg": 35.94737496644077,
      "longitude_deg": 106.19841347596778,
      "height_km": 494.8296451647083,
      "semi_major_axis_km": 6870.570069715831,
      "eccentricity": 0.0001615,
      "inclination_deg": 43.0011,
      "raan_deg": 17.279,
      "arg_perigee_deg": 253.7723,
      "mean_anomaly_deg": 227.1572,
      "mean_motion_rev_day": 15.24451466
    }
  ]
}